IRIDIUM 155             
1 43573U 18061E   23241.79299167  .00000278  00000+0  92335-4 0  9992
2 43573  86.3968 124.0193 0002395  87.0975 273.0495 14.34218765266813
IRIDIUM 154             
1 43574U 18061F   23241.77396521  .00000277  00000+0  91712-4 0  9990
2 43574  86.3973 124.1111 0001905  87.7279 272.4135 14.34218097266868
IRIDIUM 163             
1 43575U 18061G   23241.75493609  .00000289  00000+0  96134-4 0  9990
2 43575  86.3969 124.0661 0002058  85.4377 274.7054 14.34219001266835
IRIDIUM 156             
1 43576U 18061H   23241.79933482  .00000280  00000+0  92769-4 0  9994
2 43576  86.3970 124.0536 0002368  80.4602 279.6862 14.34219120266832
IRIDIUM 164             
1 43577U 18061J   23241.78030146  .00000277  00000+0  91818-4 0  9999
2 43577  86.3971 124.0861 0002079  77.8615 282.2814 14.34220677266878
IRIDIUM 159             
1 43578U 18061K   23241.81836402  .00000277  00000+0  91916-4 0  9992
2 43578  86.3969 124.0285 0002081  87.2650 272.8784 14.34218802266848
IRIDIUM 180             
1 43922U 19002A   23241.60855440  .00000105  00000+0  30333-4 0  9997
2 43922  86.3928  60.9505 0001931  88.9245 271.2172 14.34217055242421
IRIDIUM 176             
1 43923U 19002B   23241.58484153  .00000421  00000+0  62828-4 0  9999
2 43923  86.6058  60.9958 0002370  88.7826 271.3663 14.72256951248794
IRIDIUM 168             
1 43924U 19002C   23241.53245411  .00000106  00000+0  30926-4 0  9991
2 43924  86.3929  61.0308 0002033  90.1305 270.0124 14.34218778242396
IRIDIUM 173             
1 43925U 19002D   23241.79884251  .00000110  00000+0  32208-4 0  9991
2 43925  86.3926  60.8499 0002072  92.6373 267.5060 14.34216253242416
IRIDIUM 169             
1 43926U 19002E   23241.71291504  .00000370  00000+0  11443-3 0  9992
2 43926  86.4177  92.5256 0005364 102.8359 257.3438 14.38616679243220
IRIDIUM 172             
1 43927U 19002F   23241.58314857  .00000277  00000+0  91814-4 0  9992
2 43927  86.3916  60.9439 0002425  98.7841 261.3629 14.34229197242392
IRIDIUM 175             
1 43928U 19002G   23241.57863509 -.00000374  00000+0 -63348-4 0  9996
2 43928  86.1482  50.6747 0001981  90.6934 269.4509 14.72245867248786
IRIDIUM 171             
1 43929U 19002H   23241.56415381  .00000085  00000+0  23162-4 0  9994
2 43929  86.3935  61.1460 0001972  87.9282 272.2140 14.34216377242381
IRIDIUM 170             
1 43930U 19002J   23241.59100591  .00000407  00000+0  60624-4 0  9995
2 43930  86.6058  60.9981 0002427  89.7140 270.4355 14.72257481248800
IRIDIUM 167             
1 43931U 19002K   23241.62757867  .00000107  00000+0  31085-4 0  9990
2 43931  86.3927  60.9398 0002027  87.6968 272.4460 14.34215983242392
IRIDIUM 181             
1 56726U 23068S   23241.86844361  .00000368  00000+0  10300-3 0  9990
2 56726  86.8588 100.4336 0002922  59.3350 300.8139 14.43581791 14965
IRIDIUM 177             
1 56727U 23068T   23241.64535985  .00001330  00000+0  17150-3 0  9996
2 56727  86.1935  94.2591 0001953  86.2578 273.8866 14.80231666 15109
IRIDIUM 174             
1 56728U 23068U   23241.70753115  .00001358  00000+0  17524-3 0  9996
2 56728  86.1942  94.3095 0002325  90.6294 269.5193 14.80234108 15116
IRIDIUM 178             
1 56729U 23068V   23241.63407878  .00001309  00000+0  16877-3 0  9997
2 56729  86.5741  97.9500 0002233  91.2925 268.8552 14.80232833 15107
IRIDIUM 179             
1 56730U 23068W   23241.62866859  .00001278  00000+0  16482-3 0  9993
2 56730  86.6750  98.4039 0002144  89.0420 271.1048 14.80230613 15100
